{
  "locations": {
    "Malleshpalya": {
      "lat": 12.9756762,
      "lon": 77.6778473,
      "placeId": "ChIJofyaml4RrjsR0JYNMzZdBAk",
      "placeName": "Malleshpalya",
      "showMap": false
    },
    "Electronic City Phase 1": {
      "lat": 12.8333113,
      "lon": 77.667379,
      "placeId": "ChIJ5RqD8WJsrjsRSygjWs8s7Ac",
      "placeName": "Electronic city phase 1",
      "showMap": false
    },
    "Marathahalli": {
      "lat": 12.956924,
      "lon": 77.701127,
      "placeId": "ChIJVwkdVbQTrjsRGUkefteUeFk",
      "placeName": "Marathahalli",
      "showMap": false
    },
    "Marathahalli village": {
      "lat": 12.9536392,
      "lon": 77.695126,
      "placeId": "ChIJjZ-7y8sTrjsRiYeW5CGSyGM",
      "placeName": "Marathahalli Village",
      "showMap": false
    },
    "Marathahalli, chandra": {
      "lat": 12.954084,
      "lon": 77.700251,
      "placeId": "ChIJmVuxuTQSrjsRmJClrRax0vE",
      "placeName": "Marathahalli Bridge",
      "showMap": false
    },
    "Cv Raman Nagar": {
      "lat": 12.939583,
      "lon": 77.6153061,
      "placeId": "ChIJYTmvxE4UrjsR3RgHRWUIREo",
      "placeName": "CV Raman Nagar",
      "showMap": false
    },
    "Indiranagar": {
      "lat": 12.9783692,
      "lon": 77.6408356,
      "placeId": "ChIJkQN3GKQWrjsRNhBQJrhGD7U",
      "placeName": "Indiranagar",
      "showMap": false
    },
    "JP Nagar": {
      "lat": 12.9000069,
      "lon": 77.5777031,
      "placeId": "ChIJeeZSi2kVrjsR2-yROPPqinQ",
      "placeName": "JP Nagar Phase 6",
      "showMap": false
    },
    "Krishnarajapura": {
      "lat": 13.0006296,
      "lon": 77.675196,
      "placeId": "ChIJ0aGCwD0RrjsRYYkg4RGrIFU",
      "placeName": "Krishnarajapuram",
      "showMap": false
    },
    "K R Puram": {
      "lat": 13.0006296,
      "lon": 77.675196,
      "placeId": "ChIJ0aGCwD0RrjsRYYkg4RGrIFU",
      "placeName": "Krishnarajapuram",
      "showMap": false
    },
    "Whitefield": {
      "lat": 13.011277680645652,
      "lon": 77.76004623036808,
      "placeId": "5ba009ad714b568105761ddb_NBB",
      "placeName": "Whitefield Boulevard",
      "showMap": false
    },
    "Horamavu": {
      "lat": 13.0326328,
      "lon": 77.6583345,
      "placeId": "ChIJcVwGKtAQrjsRxXoaRFHZjQA",
      "placeName": "Horamavu",
      "showMap": false
    },
    "Koramangala": {
      "lat": 12.9351929,
      "lon": 77.62448069999999,
      "placeId": "ChIJLfyY2E4UrjsRVq4AjI7zgRY",
      "placeName": "Koramangala",
      "showMap": false
    },
    "HSR Layout": {
      "lat": 12.9121181,
      "lon": 77.6445548,
      "placeId": "ChIJzW7cv5EUrjsRecj7OYRxMvI",
      "placeName": "HSR Layout",
      "showMap": false
    },
    "Madiwala": {
      "lat": 12.9046136,
      "lon": 77.614948,
      "placeId": "ChIJUTco0-UUrjsRYWWjnKl04_c",
      "placeName": "Madiwala Lake",
      "showMap": false
    },
    "Banaswadi": {
      "lat": 13.0103761,
      "lon": 77.6481944,
      "placeId": "ChIJp8gWiCoXrjsRMm93KPuPiRI",
      "placeName": "Banaswadi",
      "showMap": false
    },
    "Brookefield": {
      "lat": 12.9654796,
      "lon": 77.7184638,
      "placeId": "ChIJMXz1nyQSrjsRapXq4IDC75I",
      "placeName": "Brookefield",
      "showMap": false
    },
    "Hoodi": {
      "lat": 12.9895552,
      "lon": 77.71265710000002,
      "placeId": "ChIJD1FpvJMRrjsRSPg6XJzpz5I",
      "placeName": "Hoodi",
      "showMap": false
    }
  }
}